SL-16 R/B               
1 22285U 92093B   25318.26360016  .00000356  00000+0  20699-3 0  9997
2 22285  71.0217 246.5697 0002679 151.2953 208.8318 14.15425579696822
COSMOS 2228             
1 22286U 92094A   25318.27548238  .00003810  00000+0  33196-3 0  9998
2 22286  82.5190 347.7684 0017215 335.5378  24.5025 14.96545592758790
SL-16 R/B               
1 22566U 93016B   25317.79778412  .00000395  00000+0  22731-3 0  9997
2 22566  71.0059  98.5866 0009061 150.4591 209.7046 14.15281376685777
COSMOS 2242             
1 22626U 93024A   25318.20932571  .00003577  00000+0  31650-3 0  9993
2 22626  82.5218  17.1085 0015686 338.6250  21.4315 14.95943236763122
SL-16 R/B               
1 22803U 93059B   25318.28750413  .00000359  00000+0  20118-3 0  9991
2 22803  70.9901 254.4814 0016263  18.6688 341.5029 14.17206745663181
ARIANE 40 R/B           
1 22830U 93061H   25318.19578331  .00000587  00000+0  23144-3 0  9996
2 22830  98.5112  24.2405 0009633 265.2598  94.7486 14.32775228677568
COSMOS 2278             
1 23087U 94023A   25318.31655215  .00000516  00000+0  29435-3 0  9992
2 23087  71.0544  56.4733 0009944 215.9245 144.1210 14.14339514628492
SL-16 R/B               
1 23088U 94023B   25318.27435403 -.00000152  00000+0 -53666-4 0  9995
2 23088  70.9994 313.2657 0001322 159.1055 201.0122 14.14992264629762
SL-16 R/B               
1 23343U 94074B   25318.32323029  .00001125  00000+0  15804-3 0  9991
2 23343  97.7242 348.7525 0005425 229.0779 141.8533 14.79242406670191
SL-16 R/B               
1 23405U 94077B   25318.15965703  .00000272  00000+0  16343-3 0  9996
2 23405  70.9828 235.5363 0004058 307.9628  52.1128 14.15545912599884
ARIANE 40+ R/B          
1 23561U 95021B   25318.16574822  .00000936  00000+0  31313-3 0  9999
2 23561  98.4685  26.0953 0007760 123.9567 264.5343 14.39664322602620
SL-16 R/B               
1 23705U 95058B   25318.30223516 -.00000082  00000+0 -17562-4 0  9991
2 23705  71.0228  62.5062 0014935 291.9015  68.0519 14.15476754551520
