CCSDS_OMM_VERS = 2.0
CREATION_DATE  = 
ORIGINATOR     = 

OBJECT_NAME    = SL-16 R/B
OBJECT_ID      = 1992-093B
CENTER_NAME    = EARTH
REF_FRAME      = TEME
TIME_SYSTEM    = UTC
MEAN_ELEMENT_THEORY = SGP/SGP4

EPOCH          = 2025-11-14T06:19:35.053824
MEAN_MOTION    = 14.15425579
ECCENTRICITY   = .00026797
INCLINATION    = 71.0217
RA_OF_ASC_NODE = 246.5697
ARG_OF_PERICENTER = 151.2953
MEAN_ANOMALY   = 208.8318

EPHEMERIS_TYPE = 0
CLASSIFICATION_TYPE = U
NORAD_CAT_ID   = 22285
ELEMENT_SET_NO = 999
REV_AT_EPOCH   = 69682
BSTAR          = .2069918E-3
MEAN_MOTION_DOT = .356E-5
MEAN_MOTION_DDOT = 0

CCSDS_OMM_VERS = 2.0
CREATION_DATE  = 
ORIGINATOR     = 

OBJECT_NAME    = COSMOS 2228
OBJECT_ID      = 1992-094A
CENTER_NAME    = EARTH
REF_FRAME      = TEME
TIME_SYSTEM    = UTC
MEAN_ELEMENT_THEORY = SGP/SGP4

EPOCH          = 2025-11-14T06:36:41.677632
MEAN_MOTION    = 14.96545592
ECCENTRICITY   = .00172157
INCLINATION    = 82.5190
RA_OF_ASC_NODE = 347.7684
ARG_OF_PERICENTER = 335.5378
MEAN_ANOMALY   = 24.5025

EPHEMERIS_TYPE = 0
CLASSIFICATION_TYPE = U
NORAD_CAT_ID   = 22286
ELEMENT_SET_NO = 999
REV_AT_EPOCH   = 75879
BSTAR          = .33196316E-3
MEAN_MOTION_DOT = .381E-4
MEAN_MOTION_DDOT = 0

CCSDS_OMM_VERS = 2.0
CREATION_DATE  = 
ORIGINATOR     = 

OBJECT_NAME    = SL-16 R/B
OBJECT_ID      = 1993-016B
CENTER_NAME    = EARTH
REF_FRAME      = TEME
TIME_SYSTEM    = UTC
MEAN_ELEMENT_THEORY = SGP/SGP4

EPOCH          = 2025-11-13T19:08:48.547968
MEAN_MOTION    = 14.15281376
ECCENTRICITY   = .00090617
INCLINATION    = 71.0059
RA_OF_ASC_NODE = 98.5866
ARG_OF_PERICENTER = 150.4591
MEAN_ANOMALY   = 209.7046

EPHEMERIS_TYPE = 0
CLASSIFICATION_TYPE = U
NORAD_CAT_ID   = 22566
ELEMENT_SET_NO = 999
REV_AT_EPOCH   = 68577
BSTAR          = .22730866E-3
MEAN_MOTION_DOT = .395E-5
MEAN_MOTION_DDOT = 0

CCSDS_OMM_VERS = 2.0
CREATION_DATE  = 
ORIGINATOR     = 

OBJECT_NAME    = COSMOS 2242
OBJECT_ID      = 1993-024A
CENTER_NAME    = EARTH
REF_FRAME      = TEME
TIME_SYSTEM    = UTC
MEAN_ELEMENT_THEORY = SGP/SGP4

EPOCH          = 2025-11-14T05:01:25.741344
MEAN_MOTION    = 14.95943236
ECCENTRICITY   = .00156862
INCLINATION    = 82.5218
RA_OF_ASC_NODE = 17.1085
ARG_OF_PERICENTER = 338.6250
MEAN_ANOMALY   = 21.4315

EPHEMERIS_TYPE = 0
CLASSIFICATION_TYPE = U
NORAD_CAT_ID   = 22626
ELEMENT_SET_NO = 999
REV_AT_EPOCH   = 76312
BSTAR          = .31650465E-3
MEAN_MOTION_DOT = .3577E-4
MEAN_MOTION_DDOT = 0

CCSDS_OMM_VERS = 2.0
CREATION_DATE  = 
ORIGINATOR     = 

OBJECT_NAME    = SL-16 R/B
OBJECT_ID      = 1993-059B
CENTER_NAME    = EARTH
REF_FRAME      = TEME
TIME_SYSTEM    = UTC
MEAN_ELEMENT_THEORY = SGP/SGP4

EPOCH          = 2025-11-14T06:54:00.356832
MEAN_MOTION    = 14.17206745
ECCENTRICITY   = .00162637
INCLINATION    = 70.9901
RA_OF_ASC_NODE = 254.4814
ARG_OF_PERICENTER = 18.6688
MEAN_ANOMALY   = 341.5029

EPHEMERIS_TYPE = 0
CLASSIFICATION_TYPE = U
NORAD_CAT_ID   = 22803
ELEMENT_SET_NO = 999
REV_AT_EPOCH   = 66318
BSTAR          = .20118075E-3
MEAN_MOTION_DOT = .359E-5
MEAN_MOTION_DDOT = 0

CCSDS_OMM_VERS = 2.0
CREATION_DATE  = 
ORIGINATOR     = 

OBJECT_NAME    = ARIANE 40 R/B
OBJECT_ID      = 1993-061H
CENTER_NAME    = EARTH
REF_FRAME      = TEME
TIME_SYSTEM    = UTC
MEAN_ELEMENT_THEORY = SGP/SGP4

EPOCH          = 2025-11-14T04:41:55.677984
MEAN_MOTION    = 14.32775228
ECCENTRICITY   = .00096331
INCLINATION    = 98.5112
RA_OF_ASC_NODE = 24.2405
ARG_OF_PERICENTER = 265.2598
MEAN_ANOMALY   = 94.7486

EPHEMERIS_TYPE = 0
CLASSIFICATION_TYPE = U
NORAD_CAT_ID   = 22830
ELEMENT_SET_NO = 999
REV_AT_EPOCH   = 67756
BSTAR          = .23144272E-3
MEAN_MOTION_DOT = .587E-5
MEAN_MOTION_DDOT = 0

CCSDS_OMM_VERS = 2.0
CREATION_DATE  = 
ORIGINATOR     = 

OBJECT_NAME    = COSMOS 2278
OBJECT_ID      = 1994-023A
CENTER_NAME    = EARTH
REF_FRAME      = TEME
TIME_SYSTEM    = UTC
MEAN_ELEMENT_THEORY = SGP/SGP4

EPOCH          = 2025-11-14T07:35:50.105760
MEAN_MOTION    = 14.14339514
ECCENTRICITY   = .00099445
INCLINATION    = 71.0544
RA_OF_ASC_NODE = 56.4733
ARG_OF_PERICENTER = 215.9245
MEAN_ANOMALY   = 144.1210

EPHEMERIS_TYPE = 0
CLASSIFICATION_TYPE = U
NORAD_CAT_ID   = 23087
ELEMENT_SET_NO = 999
REV_AT_EPOCH   = 62849
BSTAR          = .29435329E-3
MEAN_MOTION_DOT = .516E-5
MEAN_MOTION_DDOT = 0

CCSDS_OMM_VERS = 2.0
CREATION_DATE  = 
ORIGINATOR     = 

OBJECT_NAME    = SL-16 R/B
OBJECT_ID      = 1994-023B
CENTER_NAME    = EARTH
REF_FRAME      = TEME
TIME_SYSTEM    = UTC
MEAN_ELEMENT_THEORY = SGP/SGP4

EPOCH          = 2025-11-14T06:35:04.188192
MEAN_MOTION    = 14.14992264
ECCENTRICITY   = .00013222
INCLINATION    = 70.9994
RA_OF_ASC_NODE = 313.2657
ARG_OF_PERICENTER = 159.1055
MEAN_ANOMALY   = 201.0122

EPHEMERIS_TYPE = 0
CLASSIFICATION_TYPE = U
NORAD_CAT_ID   = 23088
ELEMENT_SET_NO = 999
REV_AT_EPOCH   = 62976
BSTAR          = -.53665805E-4
MEAN_MOTION_DOT = -.152E-5
MEAN_MOTION_DDOT = 0

CCSDS_OMM_VERS = 2.0
CREATION_DATE  = 
ORIGINATOR     = 

OBJECT_NAME    = SL-16 R/B
OBJECT_ID      = 1994-074B
CENTER_NAME    = EARTH
REF_FRAME      = TEME
TIME_SYSTEM    = UTC
MEAN_ELEMENT_THEORY = SGP/SGP4

EPOCH          = 2025-11-14T07:45:27.097056
MEAN_MOTION    = 14.79242406
ECCENTRICITY   = .00054257
INCLINATION    = 97.7242
RA_OF_ASC_NODE = 348.7525
ARG_OF_PERICENTER = 229.0779
MEAN_ANOMALY   = 141.8533

EPHEMERIS_TYPE = 0
CLASSIFICATION_TYPE = U
NORAD_CAT_ID   = 23343
ELEMENT_SET_NO = 999
REV_AT_EPOCH   = 67019
BSTAR          = .15803677E-3
MEAN_MOTION_DOT = .1125E-4
MEAN_MOTION_DDOT = 0

CCSDS_OMM_VERS = 2.0
CREATION_DATE  = 
ORIGINATOR     = 

OBJECT_NAME    = SL-16 R/B
OBJECT_ID      = 1994-077B
CENTER_NAME    = EARTH
REF_FRAME      = TEME
TIME_SYSTEM    = UTC
MEAN_ELEMENT_THEORY = SGP/SGP4

EPOCH          = 2025-11-14T03:49:54.367392
MEAN_MOTION    = 14.15545912
ECCENTRICITY   = .0004058
INCLINATION    = 70.9828
RA_OF_ASC_NODE = 235.5363
ARG_OF_PERICENTER = 307.9628
MEAN_ANOMALY   = 52.1128

EPHEMERIS_TYPE = 0
CLASSIFICATION_TYPE = U
NORAD_CAT_ID   = 23405
ELEMENT_SET_NO = 999
REV_AT_EPOCH   = 59988
BSTAR          = .1634284E-3
MEAN_MOTION_DOT = .272E-5
MEAN_MOTION_DDOT = 0

CCSDS_OMM_VERS = 2.0
CREATION_DATE  = 
ORIGINATOR     = 

OBJECT_NAME    = ARIANE 40+ R/B
OBJECT_ID      = 1995-021B
CENTER_NAME    = EARTH
REF_FRAME      = TEME
TIME_SYSTEM    = UTC
MEAN_ELEMENT_THEORY = SGP/SGP4

EPOCH          = 2025-11-14T03:58:40.646208
MEAN_MOTION    = 14.39664322
ECCENTRICITY   = .00077607
INCLINATION    = 98.4685
RA_OF_ASC_NODE = 26.0953
ARG_OF_PERICENTER = 123.9567
MEAN_ANOMALY   = 264.5343

EPHEMERIS_TYPE = 0
CLASSIFICATION_TYPE = U
NORAD_CAT_ID   = 23561
ELEMENT_SET_NO = 999
REV_AT_EPOCH   = 60262
BSTAR          = .31312896E-3
MEAN_MOTION_DOT = .936E-5
MEAN_MOTION_DDOT = 0

CCSDS_OMM_VERS = 2.0
CREATION_DATE  = 
ORIGINATOR     = 

OBJECT_NAME    = SL-16 R/B
OBJECT_ID      = 1995-058B
CENTER_NAME    = EARTH
REF_FRAME      = TEME
TIME_SYSTEM    = UTC
MEAN_ELEMENT_THEORY = SGP/SGP4

EPOCH          = 2025-11-14T07:15:13.117824
MEAN_MOTION    = 14.15476754
ECCENTRICITY   = .0014935
INCLINATION    = 71.0228
RA_OF_ASC_NODE = 62.5062
ARG_OF_PERICENTER = 291.9015
MEAN_ANOMALY   = 68.0519

EPHEMERIS_TYPE = 0
CLASSIFICATION_TYPE = U
NORAD_CAT_ID   = 23705
ELEMENT_SET_NO = 999
REV_AT_EPOCH   = 55152
BSTAR          = -.17561717E-4
MEAN_MOTION_DOT = -.82E-6
MEAN_MOTION_DDOT = 0

